FLOCK 4H-33             
1 66736U 25276BY  26192.74390229  .00003935  00000+0  17974-3 0  9996
2 66736  97.4220 266.2828 0002542 172.5742 187.5532 15.21163262 34174
FLOCK 4H-34             
1 66737U 25276BZ  26192.73006975  .00004265  00000+0  19653-3 0  9991
2 66737  97.4235 266.1933 0002217 180.0292 180.0944 15.20810263 33410
FLOCK 4H-35             
1 66738U 25276CA  26192.77187029  .00003959  00000+0  18205-3 0  9997
2 66738  97.4194 266.1735 0002216 159.0963 201.0363 15.20926771 33461
FLOCK 4H-36             
1 66739U 25276CB  26192.74408247  .00003800  00000+0  17607-3 0  9993
2 66739  97.4242 266.2005 0002029 193.5175 166.6007 15.20690038 34160
