{"fetched_at":"2026-07-12T07:15:21.624Z","source":"https://celestrak.org/NORAD/elements/gp.php?GROUP=planet&FORMAT=JSON","constellation":"superdove","records":[{"OBJECT_NAME":"FLOCK 4H-33","OBJECT_ID":"2025-276BY","EPOCH":"2026-07-11T17:51:13.157856","CLASSIFICATION_TYPE":"U","MEAN_MOTION":15.21163262,"ECCENTRICITY":0.00025428,"INCLINATION":97.422,"RA_OF_ASC_NODE":266.2828,"ARG_OF_PERICENTER":172.5742,"MEAN_ANOMALY":187.5532,"EPHEMERIS_TYPE":0,"NORAD_CAT_ID":66736,"ELEMENT_SET_NO":999,"REV_AT_EPOCH":3417,"BSTAR":0.0001797371,"MEAN_MOTION_DOT":0.00003935,"MEAN_MOTION_DDOT":0},{"OBJECT_NAME":"FLOCK 4H-34","OBJECT_ID":"2025-276BZ","EPOCH":"2026-07-11T17:31:18.026400","CLASSIFICATION_TYPE":"U","MEAN_MOTION":15.20810263,"ECCENTRICITY":0.00022173,"INCLINATION":97.4235,"RA_OF_ASC_NODE":266.1933,"ARG_OF_PERICENTER":180.0292,"MEAN_ANOMALY":180.0944,"EPHEMERIS_TYPE":0,"NORAD_CAT_ID":66737,"ELEMENT_SET_NO":999,"REV_AT_EPOCH":3341,"BSTAR":0.00019653206,"MEAN_MOTION_DOT":0.00004265,"MEAN_MOTION_DDOT":0},{"OBJECT_NAME":"FLOCK 4H-35","OBJECT_ID":"2025-276CA","EPOCH":"2026-07-11T18:31:29.593056","CLASSIFICATION_TYPE":"U","MEAN_MOTION":15.20926771,"ECCENTRICITY":0.00022163,"INCLINATION":97.4194,"RA_OF_ASC_NODE":266.1735,"ARG_OF_PERICENTER":159.0963,"MEAN_ANOMALY":201.0363,"EPHEMERIS_TYPE":0,"NORAD_CAT_ID":66738,"ELEMENT_SET_NO":999,"REV_AT_EPOCH":3346,"BSTAR":0.00018204756,"MEAN_MOTION_DOT":0.00003959,"MEAN_MOTION_DDOT":0},{"OBJECT_NAME":"FLOCK 4H-36","OBJECT_ID":"2025-276CB","EPOCH":"2026-07-11T17:51:28.725408","CLASSIFICATION_TYPE":"U","MEAN_MOTION":15.20690038,"ECCENTRICITY":0.00020299,"INCLINATION":97.4242,"RA_OF_ASC_NODE":266.2005,"ARG_OF_PERICENTER":193.5175,"MEAN_ANOMALY":166.6007,"EPHEMERIS_TYPE":0,"NORAD_CAT_ID":66739,"ELEMENT_SET_NO":999,"REV_AT_EPOCH":3416,"BSTAR":0.00017606966,"MEAN_MOTION_DOT":0.000038,"MEAN_MOTION_DDOT":0}]}
